#aV2009  1 19  0  0   .00000000      96 DD+AD WGS84 FIT  NGA
## 1515  86400.00000000   900.00000000 54850  .0000000000000
+   31     2  3  4  5  6  7  8  9 10 11 12 13 14 15 16 17 18
+         19 20 21 22 23 24 25 26 27 28 29 30 31 32  0  0  0
+          0  0  0  0  0  0  0  0  0  0  0  0  0  0  0  0  0
+          0  0  0  0  0  0  0  0  0  0  0  0  0  0  0  0  0
+          0  0  0  0  0  0  0  0  0  0  0  0  0  0  0  0  0
++         0  0  0  0  0  0  0  0  0  0  0  0  0  0  0  0  0
++         0  0  0  0  0  0  0  0  0  0  0  0  0  0  0  0  0
++         0  0  0  0  0  0  0  0  0  0  0  0  0  0  0  0  0
++         0  0  0  0  0  0  0  0  0  0  0  0  0  0  0  0  0
++         0  0  0  0  0  0  0  0  0  0  0  0  0  0  0  0  0
%c cc cc ccc ccc cccc cccc cccc cccc ccccc ccccc ccccc ccccc
%c cc cc ccc ccc cccc cccc cccc cccc ccccc ccccc ccccc ccccc
%f  0.0000000  0.000000000  0.00000000000  0.000000000000000
%f  0.0000000  0.000000000  0.00000000000  0.000000000000000
%i    0    0    0    0      0      0      0      0         0
%i    0    0    0    0      0      0      0      0         0
/*      NGA, ST. LOUIS,MO.                                  
/*   EPHEMERIS COMPUTED FROM  3 DAYS OF DATA                
/* CCCCCCCCCCCCCCCCCCCCCCCCCCCCCCCCCCCCCCCCCCCCCCCCCCCCCCCCC
/* CCCCCCCCCCCCCCCCCCCCCCCCCCCCCCCCCCCCCCCCCCCCCCCCCCCCCCCCC
*  2009  1 19 22 45   .00000000                                                 
P  2  18960.323821  -5762.756096 -17621.137867    160.854634                    
V  2 -10277.438335  19954.001665 -18095.504958      -.017576                    
P  3 -17612.976415     13.212336  19672.748120    341.291171                    
V  3 -12878.534054 -22248.484726 -10990.157906       .053209                    
P  4  13579.843897   7938.597799 -21535.995790   -305.796714                    
V  4 -15138.169498  22496.207948   -889.450589      -.135431                    
P  5   9730.117998 -14821.393532 -20036.287777   -568.585926                    
V  5  24916.237615    406.802905  12098.299351      -.540661                    
P  6 -18478.166061  -4778.835535  18667.184425     86.863773                    
V  6  -9860.443000 -21300.953972 -15340.865111      -.124147                    
P  7  -3932.147679  22608.359979  13263.369535     23.243903                    
V  7 -11150.853037  12890.352706 -25352.444726      -.002303                    
P  8   6781.746095  14306.987601  21170.423457   -187.063575                    
V  8 -16829.657019  21195.615130  -9389.225082      -.015183                    
P  9  14485.358334 -22109.117659   1220.644915     35.888566                    
V  9    925.598410   3298.810054  32084.764076       .020012                    
P 10  25933.565637  -2045.968121   6044.912073     -9.773112                    
V 10   7562.452184   3114.302077 -30286.470393      -.006276                    
P 11 -11175.719082  23787.222383   1982.245985     10.039948                    
V 11  -3916.496211  -4569.720378  30169.496985      -.010581                    
P 12  13962.297066 -12195.361267 -18907.717275   -324.050487                    
V 12  24045.908843   2937.407221  15899.104359       .033966                    
P 13   3815.500253  24496.510620  -9665.307346    285.583541                    
V 13  -6192.186525 -10456.216956 -29287.686321       .013936                    
P 14 -15633.825631 -19318.932721  -9397.862591   -165.978160                    
V 14  -3473.327396 -11653.661023  29248.887944       .052146                    
P 15  11587.819384 -10532.057625  21478.942962   -244.625871                    
V 15  12919.165268  23962.722896   4832.143816      -.055592                    
P 16 -26597.826822  -2135.500835     25.609590     80.813138                    
V 16    235.097747  -2400.986578 -31760.551888      -.027002                    
P 17  15261.767467  20762.444305  -6777.579199     44.710300                    
V 17   1419.681951   8892.380192  30036.377739       .008738                    
P 18  -8083.370631 -15496.468503  20303.644622    -91.476452                    
V 18  25259.024656   1374.433206  10860.036575       .036618                    
P 19 -11226.698502  11680.324428  21071.778699     33.618712                    
V 19 -10946.105596 -24329.312586   7898.901310      -.004936                    
P 20 -10772.200302  14026.989857 -19924.377206     93.216986                    
V 20 -25036.729418  -2243.773551  12078.691827      -.010799                    
P 21   -787.815743 -20555.345293  16682.093576     33.091243                    
V 21  14125.630078 -15875.466979 -19774.126080      -.017652                    
P 22 -19231.981880 -12090.835988  13965.734138    206.408168                    
V 22  17657.170335   -792.025232  23841.360723      -.003947                    
P 23  -3243.328185  19925.416889 -17164.647549    385.420288                    
V 23 -11178.553294 -18774.816799 -19997.403997       .007858                    
P 24  12380.816630 -23110.820489   5217.547904    158.878713                    
V 24   6049.208795  -3509.293803 -30439.398236       .030012                    
P 25  -7678.206413  24657.102853   6971.665959    185.581577                    
V 25  -5897.685183   6295.384802 -30148.777351       .261327                    
P 26  14379.779807  -2465.163245  21729.154213     37.652742                    
V 26  11457.188938  26303.934689  -3985.299387       .033216                    
P 27  11864.185538   9861.543969  22311.688405     17.658816                    
V 27 -13554.976357  22952.306184  -3119.732542       .031519                    
P 28  17607.133789  12658.822932  15970.994764    -23.732413                    
V 28 -19441.163815   -226.383262  21865.977446       .000430                    
P 29  -3418.192502 -24210.578019 -10317.760251    -16.898699                    
V 29   7915.395069  10907.422184 -27904.673714       .027633                    
P 30   -126.627817 -15598.220658 -21858.104705    120.862630                    
V 30  26934.151527    488.699026   -430.632732       .024240                    
P 31 -14396.075825  -4942.098326 -21562.357693    -48.363678                    
V 31  15015.499410 -23455.302810  -4484.470231      -.014430                    
P 32 -18773.431735   8559.628884 -16180.296229    302.300422                    
V 32 -20885.255941  -5097.387264  21231.900387      -.027865                    
EOF
